NORAD_CAT_ID,OBJECT_NAME,OBJECT_TYPE,EPOCH,MEAN_MOTION,ECCENTRICITY,INCLINATION,RA_OF_ASC_NODE,ARG_OF_PERICENTER,MEAN_ANOMALY,BSTAR,MEAN_MOTION_DOT,MEAN_MOTION_DDOT,TLE_LINE0,TLE_LINE1,TLE_LINE2,SEMIMAJOR_AXIS,PERIOD,APOGEE,PERIGEE,DECAYED
55677.0,STARLINK-5324,PAYLOAD,2023-06-20 12:06:18,15.69937,0.0003666,69.9995,164.8459,260.9372,99.1409,9.978e-05,0.00011809,0.0,0 STARLINK-5324,1 55677U 23021BB  23171.50438560  .00011809  00000-0  99780-4 0  9999,2 55677  69.9995 164.8459 0003666 260.9372  99.1409 15.69937000 19806,6737.214,91.723,361.549,356.609,0.0
55677.0,STARLINK-5324,PAYLOAD,2023-06-21 01:52:05,15.6993036,0.0003093,69.9995,163.2323,263.2555,96.8289,4.3078e-05,4.971e-05,0.0,0 STARLINK-5324,1 55677U 23021BB  23172.07783856  .00004971  00000-0  43078-4 0  9994,2 55677  69.9995 163.2323 0003093 263.2555  96.8289 15.69930360 19893,6737.233,91.724,361.182,357.014,0.0
55677.0,STARLINK-5324,PAYLOAD,2023-06-21 09:30:50,15.69929763,0.0003104,69.9999,162.3371,264.3874,95.6968,3.3645e-05,3.836e-05,0.0,0 STARLINK-5324,1 55677U 23021BB  23172.39642207  .00003836  00000-0  33645-4 0  9991,2 55677  69.9999 162.3371 0003104 264.3874  95.6968 15.69929763 20257,6737.235,91.724,361.191,357.009,0.0
55677.0,STARLINK-5324,PAYLOAD,2023-06-22 02:20:07,15.69921489,0.000316,70.0005,160.3691,251.5498,108.5354,-2.2819e-06,-4.87e-06,0.0,0 STARLINK-5324,1 55677U 23021BB  23173.09730822 -.00000487  00000-0 -22819-5 0  9993,2 55677  70.0005 160.3691 0003160 251.5498 108.5354 15.69921489 20051,6737.259,91.724,361.253,356.995,0.0
55677.0,STARLINK-5324,PAYLOAD,2023-06-22 08:27:08,15.69897834,0.0002992,70.0009,159.6528,271.8089,88.2764,-6.793e-05,-8.363e-05,0.0,0 STARLINK-5324,1 55677U 23021BB  23173.35218340 -.00008363  00000-0 -67930-4 0  9991,2 55677  70.0009 159.6528 0002992 271.8089  88.2764 15.69897834 20097,6737.326,91.726,361.207,357.175,0.0
55677.0,STARLINK-5324,PAYLOAD,2023-06-22 16:05:53,15.69921577,0.000276,70.0002,158.7544,271.1311,88.9569,1.3883e-05,1.457e-05,0.0,0 STARLINK-5324,1 55677U 23021BB  23173.67076177  .00001457  00000-0  13883-4 0  9999,2 55677  70.0002 158.7544 0002760 271.1311  88.9569 15.69921577 20140,6737.258,91.724,360.983,357.264,0.0
55677.0,STARLINK-5324,PAYLOAD,2023-06-23 01:16:23,15.69939321,0.0003137,70.0017,157.6832,260.0792,100.005,6.0049e-05,7.018e-05,0.0,0 STARLINK-5324,1 55677U 23021BB  23174.05305481  .00007018  00000-0  60049-4 0  9990,2 55677  70.0017 157.6832 0003137 260.0792 100.0050 15.69939321 20207,6737.208,91.723,361.186,356.959,0.0
55677.0,STARLINK-5324,PAYLOAD,2023-06-23 08:55:10,15.69919112,0.0003037,70.0002,156.7857,272.6204,87.4644,-3.5517e-06,-6.39e-06,0.0,0 STARLINK-5324,1 55677U 23021BB  23174.37164530 -.00000639  00000-0 -35517-5 0  9990,2 55677  70.0002 156.7857 0003037 272.6204  87.4644 15.69919112 20252,6737.265,91.724,361.177,357.084,0.0
55677.0,STARLINK-5324,PAYLOAD,2023-06-24 01:44:26,15.69929034,0.0003632,69.9992,154.8153,268.1223,91.9557,2.6304e-05,2.952e-05,0.0,0 STARLINK-5324,1 55677U 23021BB  23175.07252465  .00002952  00000-0  26304-4 0  9994,2 55677  69.9992 154.8153 0003632 268.1223  91.9557 15.69929034 20366,6737.237,91.724,361.549,356.655,0.0
55677.0,STARLINK-5324,PAYLOAD,2023-06-24 07:51:27,15.69912662,0.0003032,70.0007,154.0993,274.649,85.436,-2.7605e-05,-3.529e-05,0.0,0 STARLINK-5324,1 55677U 23021BB  23175.32739692 -.00003529  00000-0 -27605-4 0  9992,2 55677  70.0007 154.0993 0003032 274.6490  85.4360 15.69912662 20406,6737.284,91.725,361.192,357.106,0.0
55677.0,STARLINK-5324,PAYLOAD,2023-06-24 15:30:12,15.69926595,0.0003303,69.9998,153.2033,272.7135,87.3682,3.1694e-05,3.6e-05,0.0,0 STARLINK-5324,1 55677U 23021BB  23175.64597747  .00003600  00000-0  31694-4 0  9991,2 55677  69.9998 153.2033 0003303 272.7135  87.3682 15.69926595 20457,6737.244,91.724,361.334,356.884,0.0
55677.0,STARLINK-5324,PAYLOAD,2023-06-25 15:58:14,15.69929063,0.0003442,69.9993,150.3364,268.4316,91.6486,2.8631e-05,3.232e-05,0.0,0 STARLINK-5324,1 55677U 23021BB  23176.66544290  .00003232  00000-0  28631-4 0  9997,2 55677  69.9993 150.3364 0003442 268.4316  91.6486 15.69929063 20615,6737.237,91.724,361.421,356.783,0.0
55677.0,STARLINK-5324,PAYLOAD,2023-06-26 08:47:30,15.69908604,0.0003109,69.999,148.3662,276.8952,83.189,-6.4914e-05,-8.005e-05,0.0,0 STARLINK-5324,1 55677U 23021BB  23177.36632957 -.00008005  00000-0 -64914-4 0  9992,2 55677  69.9990 148.3662 0003109 276.8952  83.1890 15.69908604 20724,6737.295,91.725,361.255,357.066,0.0
55677.0,STARLINK-5324,PAYLOAD,2023-06-27 04:40:17,15.69932199,0.0003547,69.9998,146.0368,271.6298,88.4491,4.3364e-05,5.006e-05,0.0,0 STARLINK-5324,1 55677U 23021BB  23178.19464358  .00005006  00000-0  43364-4 0  9994,2 55677  69.9998 146.0368 0003547 271.6298  88.4491 15.69932199 20857,6737.228,91.724,361.483,356.703,0.0
55677.0,STARLINK-5324,PAYLOAD,2023-06-27 15:22:33,15.69926001,0.0003108,69.9984,144.7827,271.3147,88.7693,7.8528e-05,9.24e-05,0.0,0 STARLINK-5324,1 55677U 23021BB  23178.64066504  .00009240  00000-0  78528-4 0  9999,2 55677  69.9984 144.7827 0003108 271.3147  88.7693 15.69926001 20920,6737.246,91.724,361.205,357.017,0.0
55677.0,STARLINK-5324,PAYLOAD,2023-06-28 08:11:49,15.69926794,0.0003031,69.9998,142.8129,272.4834,87.6014,4.5556e-05,5.269e-05,0.0,0 STARLINK-5324,1 55677U 23021BB  23179.34154993  .00005269  00000-0  45556-4 0  9999,2 55677  69.9998 142.8129 0003031 272.4834  87.6014 15.69926794 21036,6737.243,91.724,361.15,357.066,0.0
55677.0,STARLINK-5324,PAYLOAD,2023-06-29 07:08:06,15.69927812,0.0003346,69.9999,140.1261,262.593,97.4886,2.2263e-05,2.465e-05,0.0,0 STARLINK-5324,1 55677U 23021BB  23180.29729932  .00002465  00000-0  22263-4 0  9991,2 55677  69.9999 140.1261 0003346 262.5930  97.4886 15.69927812 21185,6737.241,91.724,361.36,356.851,0.0
55677.0,STARLINK-5324,PAYLOAD,2023-07-01 00:25:25,15.69924583,0.0003223,70.0007,135.2895,263.0719,97.011,1.1679e-05,1.192e-05,0.0,0 STARLINK-5324,1 55677U 23021BB  23182.01765082  .00001192  00000-0  11679-4 0  9994,2 55677  70.0007 135.2895 0003223 263.0719  97.0110 15.69924583 21459,6737.25,91.724,361.286,356.943,0.0
55677.0,STARLINK-5324,PAYLOAD,2023-07-01 14:11:11,15.69917335,0.0003421,69.9983,133.6743,266.3022,93.7782,1.1831e-06,-7.1e-07,0.0,0 STARLINK-5324,1 55677U 23021BB  23182.59110456 -.00000071  00000-0  11831-5 0  9993,2 55677  69.9983 133.6743 0003421 266.3022  93.7782 15.69917335 21541,6737.271,91.725,361.44,356.831,0.0
55677.0,STARLINK-5324,PAYLOAD,2023-07-02 00:53:26,15.69938249,0.0003048,70.0006,132.4227,261.7633,98.3217,2.6726e-05,3.004e-05,0.0,0 STARLINK-5324,1 55677U 23021BB  23183.03711110  .00003004  00000-0  26726-4 0  9993,2 55677  70.0006 132.4227 0003048 261.7633  98.3217 15.69938249 21615,6737.211,91.723,361.129,357.022,0.0
55677.0,STARLINK-5324,PAYLOAD,2023-07-02 08:32:12,15.69918714,0.0003055,69.9993,131.5247,278.0211,82.0638,-1.4817e-05,-1.993e-05,0.0,0 STARLINK-5324,1 55677U 23021BB  23183.35570496 -.00001993  00000-0 -14817-4 0  9993,2 55677  69.9993 131.5247 0003055 278.0211  82.0638 15.69918714 21667,6737.267,91.724,361.19,357.073,0.0
55677.0,STARLINK-5324,PAYLOAD,2023-07-04 00:17:45,15.69929339,0.0003324,69.9986,126.8675,267.3038,92.7778,1.3364e-05,1.395e-05,0.0,0 STARLINK-5324,1 55677U 23021BB  23185.01233687  .00001395  00000-0  13364-4 0  9996,2 55677  69.9986 126.8675 0003324 267.3038  92.7778 15.69929339 21925,6737.236,91.724,361.341,356.862,0.0
55677.0,STARLINK-5324,PAYLOAD,2023-07-04 07:56:31,15.69923651,0.0003788,70.0001,125.9733,268.3888,91.6874,4.0934e-07,-1.64e-06,0.0,0 STARLINK-5324,1 55677U 23021BB  23185.33092029 -.00000164  00000-0  40934-6 0  9993,2 55677  70.0001 125.9733 0003788 268.3888  91.6874 15.69923651 21970,6737.252,91.724,361.67,356.565,0.0
55677.0,STARLINK-5324,PAYLOAD,2023-07-05 12:59:48,15.69927278,0.0003642,69.9994,122.5696,263.6407,96.4374,2.6471e-05,2.972e-05,0.0,0 STARLINK-5324,1 55677U 23021BB  23186.54153884  .00002972  00000-0  26471-4 0  9990,2 55677  69.9994 122.5696 0003642 263.6407  96.4374 15.69927278 22162,6737.242,91.724,361.561,356.653,0.0
55677.0,STARLINK-5324,PAYLOAD,2023-07-07 01:41:51,15.69931981,0.0003374,70.0002,118.2709,262.0199,98.0614,3.4948e-05,3.993e-05,0.0,0 STARLINK-5324,1 55677U 23021BB  23188.07073891  .00003993  00000-0  34948-4 0  9991,2 55677  70.0002 118.2709 0003374 262.0199  98.0614 15.69931981 22403,6737.229,91.724,361.367,356.82,0.0
55677.0,STARLINK-5324,PAYLOAD,2023-07-07 12:24:07,15.6992579,0.0003641,69.9994,117.0166,264.4459,95.6321,1.1146e-05,1.128e-05,0.0,0 STARLINK-5324,1 55677U 23021BB  23188.51675735  .00001128  00000-0  11146-4 0  9998,2 55677  69.9994 117.0166 0003641 264.4459  95.6321 15.69925790 22472,6737.246,91.724,361.564,356.658,0.0
55677.0,STARLINK-5324,PAYLOAD,2023-07-08 06:45:10,15.69905764,0.0003063,69.9992,114.8676,262.5826,97.5021,-3.1238e-05,-3.964e-05,0.0,0 STARLINK-5324,1 55677U 23021BB  23189.28136878 -.00003964  00000-0 -31238-4 0  9999,2 55677  69.9992 114.8676 0003063 262.5826  97.5021 15.69905764 22596,6737.304,91.725,361.232,357.105,0.0
55677.0,STARLINK-5324,PAYLOAD,2023-07-08 18:59:10,15.69915089,0.0003927,69.9968,113.432,263.7494,96.3254,-1.0572e-05,-1.484e-05,0.0,0 STARLINK-5324,1 55677U 23021BB  23189.79109720 -.00001484  00000-0 -10572-4 0  9994,2 55677  69.9968 113.4320 0003927 263.7494  96.3254 15.69915089 22678,6737.277,91.725,361.788,356.496,0.0
55677.0,STARLINK-5324,PAYLOAD,2023-07-09 02:37:55,15.69936139,0.0003551,69.9994,112.5381,264.5771,95.5019,5.1703e-05,6.012e-05,0.0,0 STARLINK-5324,1 55677U 23021BB  23190.10967399  .00006012  00000-0  51703-4 0  9996,2 55677  69.9994 112.5381 0003551 264.5771  95.5019 15.69936139 22729,6737.217,91.723,361.474,356.689,0.0
55677.0,STARLINK-5324,PAYLOAD,2023-07-09 17:55:27,15.6993008,0.0002891,70.0006,110.7466,256.402,103.6854,3.3566e-05,3.826e-05,0.0,0 STARLINK-5324,1 55677U 23021BB  23190.74684389  .00003826  00000-0  33566-4 0  9998,2 55677  70.0006 110.7466 0002891 256.4020 103.6854 15.69930080 22821,6737.234,91.724,361.047,357.151,0.0
